{"type": "FeatureCollection", "features": [ {"type": "Feature", "properties": {"norad_id": 34304, "name": "COSMOS 2251 DEB", "group": "cosmos-2251-debris", "lat": -18.031142876857924, "lon": -72.5683888870697, "alt_km": 697.6796675924616, "timestamp": "2025-12-23T20:42:37.469982+00:00", "meta": {"OBJECT_NAME": "COSMOS 2251 DEB", "OBJECT_ID": "1993-036NA", "EPOCH": "2025-12-22T08:59:04.776576", "MEAN_MOTION": 14.37946725, "ECCENTRICITY": 0.01289912, "INCLINATION": 74.0136, "RA_OF_ASC_NODE": 104.822, "ARG_OF_PERICENTER": 240.6519, "MEAN_ANOMALY": 176.2387, "EPHEMERIS_TYPE": 0, "CLASSIFICATION_TYPE": "U", "NORAD_CAT_ID": 34304, "ELEMENT_SET_NO": 999, "REV_AT_EPOCH": 87435, "BSTAR": 0.0016184217, "MEAN_MOTION_DOT": 5.36e-05, "MEAN_MOTION_DDOT": 0}, "tle": {"line1": "1 34304U 93036NA  25356.37436084  .00005360  00000+0  16184-2 0  9996", "line2": "2 34304  74.0136 104.8220 0128991 240.6519 176.2387 14.37946725874350"}}, "geometry": {"type": "Point", "coordinates": [-72.5683888870697, -18.031142876857924]}}, {"type": "Feature", "properties": {"norad_id": 34307, "name": "COSMOS 2251 DEB", "group": "cosmos-2251-debris", "lat": -55.66870158796214, "lon": -89.47916000378264, "alt_km": 1353.9767577809343, "timestamp": "2025-12-23T20:42:37.469993+00:00", "meta": {"OBJECT_NAME": "COSMOS 2251 DEB", "OBJECT_ID": "1993-036ND", "EPOCH": "2025-12-22T06:44:04.477632", "MEAN_MOTION": 13.54335619, "ECCENTRICITY": 0.03918372, "INCLINATION": 74.054, "RA_OF_ASC_NODE": 297.8063, "ARG_OF_PERICENTER": 126.6405, "MEAN_ANOMALY": 22.0681, "EPHEMERIS_TYPE": 0, "CLASSIFICATION_TYPE": "U", "NORAD_CAT_ID": 34307, "ELEMENT_SET_NO": 999, "REV_AT_EPOCH": 82991, "BSTAR": 0.00070815067, "MEAN_MOTION_DOT": 7.69e-06, "MEAN_MOTION_DDOT": 0}, "tle": {"line1": "1 34307U 93036ND  25356.28060738  .00000769  00000+0  70815-3 0  9998", "line2": "2 34307  74.0540 297.8063 0391837 126.6405  22.0681 13.54335619829917"}}, "geometry": {"type": "Point", "coordinates": [-89.47916000378264, -55.66870158796214]}}, {"type": "Feature", "properties": {"norad_id": 34313, "name": "COSMOS 2251 DEB", "group": "cosmos-2251-debris", "lat": -54.03157190644943, "lon": 125.42345760422315, "alt_km": 518.0134369146881, "timestamp": "2025-12-23T20:42:37.470003+00:00", "meta": {"OBJECT_NAME": "COSMOS 2251 DEB", "OBJECT_ID": "1993-036NK", "EPOCH": "2025-12-23T03:53:02.798880", "MEAN_MOTION": 15.20841146, "ECCENTRICITY": 0.00123525, "INCLINATION": 73.9714, "RA_OF_ASC_NODE": 283.5625, "ARG_OF_PERICENTER": 64.6608, "MEAN_ANOMALY": 295.5867, "EPHEMERIS_TYPE": 0, "CLASSIFICATION_TYPE": "U", "NORAD_CAT_ID": 34313, "ELEMENT_SET_NO": 999, "REV_AT_EPOCH": 89223, "BSTAR": 0.0044107554, "MEAN_MOTION_DOT": 0.00098877, "MEAN_MOTION_DDOT": 0}, "tle": {"line1": "1 34313U 93036NK  25357.16183795  .00098877  00000+0  44108-2 0  9994", "line2": "2 34313  73.9714 283.5625 0012352  64.6608 295.5867 15.20841146892239"}}, "geometry": {"type": "Point", "coordinates": [125.42345760422315, -54.03157190644943]}}, {"type": "Feature", "properties": {"norad_id": 34314, "name": "COSMOS 2251 DEB", "group": "cosmos-2251-debris", "lat": 60.00247899839354, "lon": 78.74388635385253, "alt_km": 819.359034708832, "timestamp": "2025-12-23T20:42:37.470013+00:00", "meta": {"OBJECT_NAME": "COSMOS 2251 DEB", "OBJECT_ID": "1993-036NL", "EPOCH": "2025-12-23T05:30:17.917920", "MEAN_MOTION": 14.1744895, "ECCENTRICITY": 0.01034057, "INCLINATION": 74.0062, "RA_OF_ASC_NODE": 289.6639, "ARG_OF_PERICENTER": 32.8604, "MEAN_ANOMALY": 89.9665, "EPHEMERIS_TYPE": 0, "CLASSIFICATION_TYPE": "U", "NORAD_CAT_ID": 34314, "ELEMENT_SET_NO": 999, "REV_AT_EPOCH": 86806, "BSTAR": 0.00063643589, "MEAN_MOTION_DOT": 1.335e-05, "MEAN_MOTION_DDOT": 0}, "tle": {"line1": "1 34314U 93036NL  25357.22937405  .00001335  00000+0  63644-3 0  9997", "line2": "2 34314  74.0062 289.6639 0103405  32.8604  89.9665 14.17448950868069"}}, "geometry": {"type": "Point", "coordinates": [78.74388635385253, 60.00247899839354]}}, {"type": "Feature", "properties": {"norad_id": 34316, "name": "COSMOS 2251 DEB", "group": "cosmos-2251-debris", "lat": 46.120488298145254, "lon": -28.115200703858775, "alt_km": 580.7166397072633, "timestamp": "2025-12-23T20:42:37.470024+00:00", "meta": {"OBJECT_NAME": "COSMOS 2251 DEB", "OBJECT_ID": "1993-036NN", "EPOCH": "2025-12-23T04:24:10.735776", "MEAN_MOTION": 14.92140079, "ECCENTRICITY": 0.00090252, "INCLINATION": 74.066, "RA_OF_ASC_NODE": 315.9628, "ARG_OF_PERICENTER": 36.7347, "MEAN_ANOMALY": 323.4453, "EPHEMERIS_TYPE": 0, "CLASSIFICATION_TYPE": "U", "NORAD_CAT_ID": 34316, "ELEMENT_SET_NO": 999, "REV_AT_EPOCH": 89365, "BSTAR": 0.0018311638, "MEAN_MOTION_DOT": 0.00018659, "MEAN_MOTION_DDOT": 0}, "tle": {"line1": "1 34316U 93036NN  25357.18345759  .00018659  00000+0  18312-2 0  9997", "line2": "2 34316  74.0660 315.9628 0009025  36.7347 323.4453 14.92140079893654"}}, "geometry": {"type": "Point", "coordinates": [-28.115200703858775, 46.120488298145254]}}, {"type": "Feature", "properties": {"norad_id": 34317, "name": "COSMOS 2251 DEB", "group": "cosmos-2251-debris", "lat": 54.073151143858404, "lon": 173.9966566163835, "alt_km": 1121.7306630727599, "timestamp": "2025-12-23T20:42:37.470035+00:00", "meta": {"OBJECT_NAME": "COSMOS 2251 DEB", "OBJECT_ID": "1993-036NP", "EPOCH": "2025-12-23T00:55:00.708960", "MEAN_MOTION": 13.65134432, "ECCENTRICITY": 0.03368983, "INCLINATION": 73.9243, "RA_OF_ASC_NODE": 18.8038, "ARG_OF_PERICENTER": 6.0774, "MEAN_ANOMALY": 21.3695, "EPHEMERIS_TYPE": 0, "CLASSIFICATION_TYPE": "U", "NORAD_CAT_ID": 34317, "ELEMENT_SET_NO": 999, "REV_AT_EPOCH": 83760, "BSTAR": 0.00058789748, "MEAN_MOTION_DOT": 6.8e-06, "MEAN_MOTION_DDOT": 0}, "tle": {"line1": "1 34317U 93036NP  25357.03820265  .00000680  00000+0  58790-3 0  9992", "line2": "2 34317  73.9243  18.8038 0336898   6.0774  21.3695 13.65134432837609"}}, "geometry": {"type": "Point", "coordinates": [173.9966566163835, 54.073151143858404]}}, {"type": "Feature", "properties": {"norad_id": 34321, "name": "COSMOS 2251 DEB", "group": "cosmos-2251-debris", "lat": -37.18777875202722, "lon": 122.91276273512155, "alt_km": 725.1138419895005, "timestamp": "2025-12-23T20:42:37.470045+00:00", "meta": {"OBJECT_NAME": "COSMOS 2251 DEB", "OBJECT_ID": "1993-036NT", "EPOCH": "2025-12-23T03:29:37.584096", "MEAN_MOTION": 14.50098417, "ECCENTRICITY": 0.00160204, "INCLINATION": 74.0277, "RA_OF_ASC_NODE": 136.8107, "ARG_OF_PERICENTER": 265.7344, "MEAN_ANOMALY": 271.8999, "EPHEMERIS_TYPE": 0, "CLASSIFICATION_TYPE": "U", "NORAD_CAT_ID": 34321, "ELEMENT_SET_NO": 999, "REV_AT_EPOCH": 88637, "BSTAR": 0.0005450987, "MEAN_MOTION_DOT": 2.092e-05, "MEAN_MOTION_DDOT": 0}, "tle": {"line1": "1 34321U 93036NT  25357.14557389  .00002092  00000+0  54510-3 0  9998", "line2": "2 34321  74.0277 136.8107 0016020 265.7344 271.8999 14.50098417886374"}}, "geometry": {"type": "Point", "coordinates": [122.91276273512155, -37.18777875202722]}}, {"type": "Feature", "properties": {"norad_id": 34323, "name": "COSMOS 2251 DEB", "group": "cosmos-2251-debris", "lat": -54.76663224796324, "lon": -54.67082170166553, "alt_km": 656.2732357689556, "timestamp": "2025-12-23T20:42:37.470055+00:00", "meta": {"OBJECT_NAME": "COSMOS 2251 DEB", "OBJECT_ID": "1993-036NV", "EPOCH": "2025-12-22T08:05:29.670144", "MEAN_MOTION": 14.74706103, "ECCENTRICITY": 0.00577784, "INCLINATION": 73.9541, "RA_OF_ASC_NODE": 104.2764, "ARG_OF_PERICENTER": 145.9569, "MEAN_ANOMALY": 274.432, "EPHEMERIS_TYPE": 0, "CLASSIFICATION_TYPE": "U", "NORAD_CAT_ID": 34323, "ELEMENT_SET_NO": 999, "REV_AT_EPOCH": 88581, "BSTAR": 0.0025246725, "MEAN_MOTION_DOT": 0.00017341, "MEAN_MOTION_DDOT": 0}, "tle": {"line1": "1 34323U 93036NV  25356.33714896  .00017341  00000+0  25247-2 0  9995", "line2": "2 34323  73.9541 104.2764 0057778 145.9569 274.4320 14.74706103885818"}}, "geometry": {"type": "Point", "coordinates": [-54.67082170166553, -54.76663224796324]}}, {"type": "Feature", "properties": {"norad_id": 34325, "name": "COSMOS 2251 DEB", "group": "cosmos-2251-debris", "lat": 11.876953298017098, "lon": -10.28090408675798, "alt_km": 748.8372536524757, "timestamp": "2025-12-23T20:42:37.470066+00:00", "meta": {"OBJECT_NAME": "COSMOS 2251 DEB", "OBJECT_ID": "1993-036NX", "EPOCH": "2025-12-22T11:34:12.778176", "MEAN_MOTION": 14.0453164, "ECCENTRICITY": 0.01915677, "INCLINATION": 73.8701, "RA_OF_ASC_NODE": 175.6408, "ARG_OF_PERICENTER": 191.1503, "MEAN_ANOMALY": 197.845, "EPHEMERIS_TYPE": 0, "CLASSIFICATION_TYPE": "U", "NORAD_CAT_ID": 34325, "ELEMENT_SET_NO": 999, "REV_AT_EPOCH": 85652, "BSTAR": 0.001912921, "MEAN_MOTION_DOT": 3.573e-05, "MEAN_MOTION_DDOT": 0}, "tle": {"line1": "1 34325U 93036NX  25356.48209234  .00003573  00000+0  19129-2 0  9992", "line2": "2 34325  73.8701 175.6408 0191567 191.1503 197.8450 14.04531640856523"}}, "geometry": {"type": "Point", "coordinates": [-10.28090408675798, 11.876953298017098]}}, {"type": "Feature", "properties": {"norad_id": 34327, "name": "COSMOS 2251 DEB", "group": "cosmos-2251-debris", "lat": 42.0712123868878, "lon": -45.421931039886395, "alt_km": 619.1517278137753, "timestamp": "2025-12-23T20:42:37.470076+00:00", "meta": {"OBJECT_NAME": "COSMOS 2251 DEB", "OBJECT_ID": "1993-036NZ", "EPOCH": "2025-12-22T20:28:13.533024", "MEAN_MOTION": 14.89390114, "ECCENTRICITY": 0.00335009, "INCLINATION": 73.9939, "RA_OF_ASC_NODE": 151.6188, "ARG_OF_PERICENTER": 326.0161, "MEAN_ANOMALY": 156.4703, "EPHEMERIS_TYPE": 0, "CLASSIFICATION_TYPE": "U", "NORAD_CAT_ID": 34327, "ELEMENT_SET_NO": 999, "REV_AT_EPOCH": 89658, "BSTAR": 0.0013172854, "MEAN_MOTION_DOT": 0.00012631, "MEAN_MOTION_DDOT": 0}, "tle": {"line1": "1 34327U 93036NZ  25356.85293441  .00012631  00000+0  13173-2 0  9996", "line2": "2 34327  73.9939 151.6188 0033500 326.0161 156.4703 14.89390114896583"}}, "geometry": {"type": "Point", "coordinates": [-45.421931039886395, 42.0712123868878]}}]}